STARLINK-30863          
1 59027U 24038E   26068.30243000 -.00000680  00000+0 -15180-4 0  9998
2 59027  43.0016  29.6402 0001015 236.7513 123.3241 15.27577328114588
2025-313BC              
1 67298U 25313BC  26068.18968176  .00075331  00000+0  26410-2 0  9997
2 67298  97.3985 144.8110 0008478 328.9209  31.1528 15.29126358  7890
